# From MPC106342
C/1995 O1 (Hale-Bopp),e,89.1413,283.0305,130.8378,183.5250,0.0003964,0.99490107,0.0000,03/29.3307/1997,2000,g -2.0,4.0
# From NK 1615
P/1996 R2 (Lagerkvist),e,2.6010,40.0494,333.2907,3.771821,0.1345481,0.31322300,313.2463,03/01.0/2018,2000,g 11.5,4.0
# From MPC 30063
P/1997 B1 (Kobayashi),e,12.3559,328.9665,183.4117,8.553612,0.0393985,0.76063688,301.3734,03/01.0/2018,2000,g 15.0,2.0
# From MPC 75703
P/1998 VS24 (LINEAR),e,5.0223,159.0512,244.9424,4.534459,0.1020742,0.24165474,4.1710,03/01.0/2018,2000,g 13.0,2.0
# From NK 1780
P/1999 D1 (Hermann),e,21.3370,348.7662,174.1124,5.760034,0.0712962,0.71345477,135.3697,03/01.0/2018,2000,g 15.0,4.0
# From CCO 17
P/1999 R1 (SOHO),e,12.1378,357.2072,51.3391,2.514142,0.2472403,0.97973317,0.0000,08/30.8019/2019,2000,g 27.0,6.0
# From NK 731
P/1999 RO28 (LONEOS),e,7.5613,138.4399,230.5976,3.437208,0.1546662,0.67284086,285.5487,03/01.0/2018,2000,g 20.0,2.0
# From MPC 75704
P/1999 XN120 (Catalina),e,5.0294,285.2935,162.0195,4.180711,0.1152999,0.21132414,30.1599,03/01.0/2018,2000,g 13.5,2.0
# From NK 744
P/2000 R2 (LINEAR),e,11.6980,160.4503,176.3795,3.465800,0.1527562,0.53242640,287.7431,03/01.0/2018,2000,g 18.0,4.0
# From MPC 73461
P/2000 S4 (LINEAR-Spacewatch),e,28.3932,173.9356,172.8289,7.131776,0.0517497,0.68186508,330.2748,03/01.0/2018,2000,g 17.5,2.0
# From MPC 75704
P/2001 BB50 (LINEAR-NEAT),e,10.3627,351.1923,193.6255,5.736160,0.0717418,0.58719553,91.4167,03/01.0/2018,2000,g 13.0,4.0
# From MPC 43019
P/2001 H5 (NEAT),e,8.3786,328.6983,224.7989,6.094833,0.0655030,0.59997385,56.4124,03/01.0/2018,2000,g 12.0,4.0
# From MPC 75704
P/2001 Q6 (NEAT),e,56.8549,22.0040,43.0946,7.934451,0.0440990,0.82271404,263.2948,03/01.0/2018,2000,g 13.5,4.0
# From MPC 82311
P/2001 R6 (LINEAR-Skiff),e,17.3796,67.3358,308.4819,4.179375,0.1153552,0.47574286,334.9393,03/01.0/2018,2000,g 13.0,4.0
# From MPC 75704
P/2001 T3 (NEAT),e,19.3973,55.1636,356.7879,6.446343,0.0602191,0.61446118,353.8769,03/01.0/2018,2000,g 12.0,4.0
# From MPC 47727
P/2002 EJ57 (LINEAR),e,4.9766,330.4333,167.0147,6.463342,0.0599816,0.59351883,353.4299,03/01.0/2018,2000,g 12.5,4.0
# From MPC 82311
P/2002 T5 (LINEAR),e,30.8676,123.1120,326.9701,6.987407,0.0533617,0.43721133,285.9804,03/01.0/2018,2000,g  8.0,4.0
# From MPC 75704
P/2002 T6 (NEAT-LINEAR),e,10.9112,207.9767,218.4057,7.642662,0.0466484,0.55920193,250.7636,03/01.0/2018,2000,g 10.5,4.0
# From MPC 75007
C/2002 VQ94 (LINEAR),e,70.4355,34.8915,100.1851,191.5062,0.0003719,0.96439427,1.6397,03/01.0/2018,2000,g  9.5,2.0
# From MPC 50354
P/2003 F2 (NEAT),e,11.6036,359.1092,191.7337,6.494324,0.0595529,0.54252259,323.0393,03/01.0/2018,2000,g 16.5,2.0
# From MPC 75704
P/2003 L1 (Scotti),e,9.0204,226.0656,354.6957,6.721659,0.0565574,0.25315065,311.3225,03/01.0/2018,2000,g  8.5,4.0
# From MPC 50139
P/2003 QX29 (NEAT),e,11.3882,264.5850,37.1441,8.051108,0.0431440,0.47138583,242.8279,03/01.0/2018,2000,g  8.5,4.0
# From MPC 99268
P/2003 T12 (SOHO),e,11.2052,175.6705,218.7508,2.582137,0.2375391,0.77348170,171.1282,03/01.0/2018,2000,g 17.0,4.0
# From MPC 75705
P/2003 U3 (NEAT),e,7.0064,348.0017,356.8638,5.056784,0.0866747,0.50879198,106.8737,03/01.0/2018,2000,g 13.5,4.0
# From MPC 82312
P/2004 A1 (LONEOS),e,10.5590,124.8999,21.7291,7.936588,0.0440812,0.31128104,216.8087,03/01.0/2018,2000,g  6.5,4.0
# From MPC 54558
P/2004 DO29 (Spacewatch-LINEAR),e,14.5342,147.4736,40.7043,7.279090,0.0501867,0.44264222,245.3271,03/01.0/2018,2000,g 13.5,2.0
# From MPC 54823
P/2004 FY140 (LINEAR),e,2.1365,326.7784,242.2604,4.894870,0.0910107,0.17009409,86.2947,03/01.0/2018,2000,g 12.5,2.0
# From MPC 53304
P/2004 R3 (LINEAR-NEAT),e,12.7862,305.9977,41.0595,4.732086,0.0957470,0.26162178,233.4957,03/01.0/2018,2000,g 14.5,4.0
# From MPC 55521
P/2004 V3 (Siding Spring),e,50.3718,356.0974,322.2121,7.149299,0.0515595,0.44524853,252.0438,03/01.0/2018,2000,g 11.5,4.0
# From MPC 75705
P/2004 V5 (LINEAR-Hill),e,19.3535,47.7121,88.0808,7.958945,0.0438956,0.44522668,208.2413,03/01.0/2018,2000,g  8.0,4.0
# From MPC 75705
P/2004 WR9 (LINEAR),e,4.9310,24.8775,72.0857,6.140811,0.0647687,0.68271705,310.6008,03/01.0/2018,2000,g 14.5,4.0
# From MPC 54164
P/2005 E1 (Tubbiolo),e,4.2664,335.6630,194.1920,7.031041,0.0528658,0.37641272,252.2825,03/01.0/2018,2000,g 10.0,4.0
# From MPC 54823
P/2005 GF8 (LONEOS),e,1.1922,314.9058,285.3709,5.854996,0.0695687,0.51634237,319.7416,03/01.0/2018,2000,g 11.5,4.0
# From MPC 75290
P/2005 JN (Spacewatch),e,8.8571,70.7679,153.4243,3.498151,0.1506420,0.34904454,338.3171,03/01.0/2018,2000,g 14.0,4.0
# From MPC 79019
P/2005 J1 (McNaught),e,31.7678,268.7985,338.9320,3.568426,0.1462140,0.57027688,326.9685,03/01.0/2018,2000,g 16.5,4.0
# From MPC 75705
P/2005 JD108 (Catalina-NEAT),e,3.2817,223.8110,90.1579,6.499975,0.0594753,0.37498467,276.3946,03/01.0/2018,2000,g 10.0,4.0
# From MPC 74246
P/2005 L1 (McNaught),e,7.7344,138.2409,149.4423,3.979909,0.1241350,0.20845751,193.3647,03/01.0/2018,2000,g  9.5,4.0
# From MPC 87062
C/2005 L3 (McNaught),e,139.5155,288.7872,47.1348,2748,0.0000068,0.99795982,0.0000,01/10.3202/2008,2000,g  4.0,4.0
# From MPC 75706
P/2005 R1 (NEAT),e,15.4845,257.9801,118.8042,5.522924,0.0759365,0.62560114,345.0132,03/01.0/2018,2000,g 14.0,4.0
# From MPC 75706
P/2005 S2 (Skiff),e,3.1359,161.1866,229.8642,8.017480,0.0434157,0.19571929,186.3074,03/01.0/2018,2000,g  7.5,4.0
# From MPC 75706
P/2005 SB216 (LONEOS),e,24.0530,1.3561,83.5570,7.116227,0.0519194,0.46282327,210.0227,03/01.0/2018,2000,g 12.0,2.0
# From MPC 55717
P/2005 T2 (Christensen),e,8.2917,260.1950,59.1178,3.841223,0.1309181,0.41729203,259.1772,03/01.0/2018,2000,g 14.5,4.0
# From MPC 73461
P/2005 T3 (Read),e,6.2434,27.9466,8.4260,7.559800,0.0474175,0.17134266,211.2917,03/01.0/2018,2000,g  9.0,4.0
# From MPC 73461
P/2005 T4 (SWAN),e,160.0676,25.3785,41.2908,9.355664,0.0344423,0.93111626,156.1293,03/01.0/2018,2000,g 15.0,4.0
# From MPC 75706
P/2005 T5 (Broughton),e,21.3356,57.0273,304.5226,7.293095,0.0500422,0.55032543,226.4586,03/01.0/2018,2000,g 11.0,4.0
# From MPC 56954
P/2005 W3 (Kowalski),e,16.4164,210.2784,200.2559,6.342192,0.0617085,0.54245175,279.7578,03/01.0/2018,2000,g 12.0,4.0
# From MPC 75706
P/2005 XA54 (LONEOS-Hill),e,17.1273,143.7311,15.1578,6.048784,0.0662524,0.71063211,289.4479,03/01.0/2018,2000,g 14.0,4.0
# From MPC 75706
P/2005 Y2 (McNaught),e,19.1095,94.5236,194.3402,6.336208,0.0617959,0.46659089,300.2425,03/01.0/2018,2000,g  9.0,4.0
# From MPC 75707
P/2006 D1 (Hill),e,17.3659,359.9701,119.4244,5.564854,0.0750799,0.65947200,337.8022,03/01.0/2018,2000,g 16.0,4.0
# From MPC 75707
P/2006 F1 (Kowalski),e,21.2807,124.7464,186.1433,4.669739,0.0976709,0.12023941,358.6466,03/01.0/2018,2000,g  8.0,4.0
# From MPC 56954
P/2006 F4 (Spacewatch),e,12.3877,184.0386,31.1057,3.526918,0.1488028,0.33803934,282.6737,03/01.0/2018,2000,g 15.0,4.0
# From MPC 58118
P/2006 H1 (McNaught),e,12.8401,0.0639,309.4357,5.760221,0.0712928,0.58069222,313.8570,03/01.0/2018,2000,g 12.5,4.0
# From MPC 75707
P/2006 HR30 (Siding Spring),e,31.8784,309.7490,117.4826,7.809093,0.0451651,0.84160375,184.4210,03/01.0/2018,2000,g 11.0,4.0
# From MPC 73914
C/2006 K4 (NEAT),e,111.4331,116.6795,233.6492,1050,0.0000290,0.99695381,0.0000,11/24.2528/2007,2000,g  6.0,4.0
# From MPC 82313
C/2006 OF2 (Broughton),h,09/10.1421/2008,30.1290,318.5303,95.8576,1.001769,2.456639,2000,5.5,4.0
# From MPC 72849
C/2006 Q1 (McNaught),e,59.1471,199.3274,344.5030,2487,0.0000079,0.99888586,0.0000,07/04.2973/2008,2000,g  5.0,4.0
# From MPC 73461
P/2006 R1 (Siding Spring),e,160.0723,218.8280,249.2948,5.635555,0.0736714,0.70503213,310.2893,03/01.0/2018,2000,g 16.0,4.0
# From MPC 69905
P/2006 S1 (Christensen),e,12.3439,207.9099,133.7737,3.539066,0.1480373,0.60061953,270.7069,03/01.0/2018,2000,g 17.5,4.0
# From MPC105235
C/2006 S3 (LONEOS),e,166.0216,38.3377,140.0617,20114,0.0000003,0.99974427,0.0000,04/12.7348/2012,2000,g  2.0,4.0
# From MPC 75707
P/2006 S4 (Christensen),e,39.5926,36.1064,305.4809,6.281664,0.0626026,0.50647602,271.1822,03/01.0/2018,2000,g 11.0,4.0
# From MPC 60465
C/2006 S5 (Hill),e,10.1124,281.5019,182.3067,97.26872,0.0010274,0.97270629,0.0000,12/05.1162/2007,2000,g  8.0,4.0
# From MPC 66204
C/2006 U6 (Spacewatch),e,84.7481,180.0363,276.6908,2198,0.0000096,0.99885546,0.0000,05/31.6749/2008,2000,g  8.0,4.0
# From MPC 62580
C/2006 V1 (Catalina),e,31.3943,335.5027,253.0532,157.8710,0.0004969,0.98322037,0.0000,11/28.1461/2007,2000,g  8.0,4.0
# From MPC105235
P/2006 W1 (Gibbs),e,18.5133,152.6145,231.8058,5.827316,0.0700650,0.70697195,306.3889,03/01.0/2018,2000,g 12.0,4.0
# From MPC 82313
C/2006 W3 (Christensen),e,127.0762,113.4364,133.1862,3778,0.0000042,0.99917774,0.0000,07/05.7245/2009,2000,g  5.0,4.0
# From MPC 75707
P/2007 A2 (Christensen),e,26.5066,300.9467,186.9088,6.311348,0.0621614,0.55799988,252.1845,03/01.0/2018,2000,g 13.5,4.0
# From MPC 59319
P/2007 B1 (Christensen),e,12.3777,77.6728,46.8891,5.809671,0.0703845,0.58102902,285.2750,03/01.0/2018,2000,g 13.5,4.0
# From MPC 66700
C/2007 B2 (Skiff),e,27.5895,14.7000,206.1597,661.3667,0.0000579,0.99551166,0.0000,08/24.3801/2008,2000,g  6.0,4.0
# From MPC 75707
P/2007 C2 (Catalina),e,8.7172,275.8267,179.4907,7.020707,0.0529825,0.46414271,202.9171,03/01.0/2018,2000,g 10.0,4.0
# From MPC 84315
C/2007 D1 (LINEAR),e,41.4918,170.9949,340.3157,2535,0.0000077,0.99651684,0.0000,06/16.4816/2007,2000,g  3.5,4.0
# From MPC 66464
C/2007 G1 (LINEAR),e,88.6121,79.0276,223.8839,5384,0.0000025,0.99950855,0.0000,11/14.4391/2008,2000,g  5.5,4.0
# From MPC 82314
P/2007 K2 (Gibbs),e,7.6587,188.6456,347.5367,7.252766,0.0504601,0.68529797,197.3860,03/01.0/2018,2000,g 14.0,4.0
# From MPC 82314
C/2007 K3 (Siding Spring),e,16.4005,263.1918,23.2952,1569,0.0000159,0.99870917,0.0000,04/22.7290/2008,2000,g  9.5,4.0
# From MPC 87475
C/2007 M1 (McNaught),e,139.7222,326.8877,52.6274,1120,0.0000263,0.99332681,0.0000,08/05.8517/2008,2000,g  6.0,4.0
# From MPC 68392
C/2007 M2 (Catalina),e,81.0567,357.2317,220.7239,1704,0.0000140,0.99792012,0.0000,12/11.0437/2008,2000,g  8.0,4.0
# From MPC 73461
